OBJECT_NAME,OBJECT_ID,EPOCH,MEAN_MOTION,ECCENTRICITY,INCLINATION,RA_OF_ASC_NODE,ARG_OF_PERICENTER,MEAN_ANOMALY,EPHEMERIS_TYPE,CLASSIFICATION_TYPE,NORAD_CAT_ID,ELEMENT_SET_NO,REV_AT_EPOCH,BSTAR,MEAN_MOTION_DOT,MEAN_MOTION_DDOT
TIANMU-1 20,2023-208B,2026-07-18T22:00:46.914624,15.33198299,.0006701,97.4471,317.0618,197.9962,162.1044,0,U,58661,999,14228,.13842537E-3,.4361E-4,0
TIANMU-1 21,2023-208C,2026-07-18T22:07:48.495648,15.35592749,.00070637,97.4532,319.8869,190.7284,169.3810,0,U,58662,999,14243,.15588351E-3,.5314E-4,0
TIANMU-1 22,2023-208D,2026-07-18T21:31:29.357184,15.31457588,.00031033,97.4525,316.2814,202.4916,157.6190,0,U,58663,999,14218,.1346472E-3,.4011E-4,0
TIANMU-1 15,2024-004A,2026-07-18T22:45:22.772736,15.26936117,.00063552,97.4674,26.1392,213.1459,146.9382,0,U,58700,999,14062,.11198191E-3,.2888E-4,0
TIANMU-1 16,2024-004B,2026-07-18T22:29:50.692992,15.27039148,.00046731,97.4622,25.3429,228.5296,131.5543,0,U,58701,999,14062,.10567017E-3,.2729E-4,0
TIANMU-1 17,2024-004C,2026-07-18T20:34:35.177376,15.27035837,.00040993,97.4649,25.7594,234.4102,125.6755,0,U,58702,999,14060,.10177376E-3,.2625E-4,0
TIANMU-1 18,2024-004D,2026-07-18T23:09:10.792800,15.26951611,.00040925,97.4666,26.1298,208.2249,151.8768,0,U,58703,999,14062,.10645173E-3,.2742E-4,0
INSAT-3DS,2024-033A,2026-07-18T21:42:38.596896,1.00270805,.00012094,0.0807,264.1306,221.7783,218.5102,0,U,58990,999,4738,0,-.162E-5,0
METEOR-M2 4,2024-039A,2026-07-18T23:28:18.308352,14.22432338,.00082478,98.7028,158.8796,79.4037,280.8069,0,U,59051,999,12378,.13809884E-4,-.13E-6,0
GOES 19,2024-119A,2026-07-18T15:05:38.632704,1.00270741,.00003904,0.0180,140.2723,52.0769,255.2869,0,U,60133,999,727,0,-.255E-5,0
MTG-S1,2025-143A,2026-07-18T18:58:38.631360,1.00274651,.00033112,0.5824,345.9806,259.1431,335.7516,0,U,64723,999,373,0,-.13E-6,0
METOP-SGA1,2025-172A,2026-07-14T18:20:46.629312,14.19819127,.00070989,98.6631,254.9090,333.3306,26.7504,0,U,65159,999,4770,.2916334E-4,.19E-6,0
FENGYUN 3H,2025-219A,2026-07-18T19:42:37.198368,14.19925118,.00010762,98.6769,139.9762,61.0817,299.0468,0,U,65815,999,4187,.22350183E-4,.4E-7,0
