TIANMU-1 20             
1 58661U 23208B   26199.91720966  .00004361  00000+0  13843-3 0  9993
2 58661  97.4471 317.0618 0006701 197.9962 162.1044 15.33198299142288
TIANMU-1 21             
1 58662U 23208C   26199.92208907  .00005314  00000+0  15588-3 0  9998
2 58662  97.4532 319.8869 0007063 190.7284 169.3810 15.35592749142432
TIANMU-1 22             
1 58663U 23208D   26199.89686756  .00004011  00000+0  13465-3 0  9992
2 58663  97.4525 316.2814 0003103 202.4916 157.6190 15.31457588142180
TIANMU-1 15             
1 58700U 24004A   26199.94818024  .00002888  00000+0  11198-3 0  9991
2 58700  97.4674  26.1392 0006355 213.1459 146.9382 15.26936117140623
TIANMU-1 16             
1 58701U 24004B   26199.93739228  .00002729  00000+0  10567-3 0  9992
2 58701  97.4622  25.3429 0004673 228.5296 131.5543 15.27039148140627
TIANMU-1 17             
1 58702U 24004C   26199.85735159  .00002625  00000+0  10177-3 0  9995
2 58702  97.4649  25.7594 0004099 234.4102 125.6755 15.27035837140606
TIANMU-1 18             
1 58703U 24004D   26199.96470825  .00002742  00000+0  10645-3 0  9994
2 58703  97.4666  26.1298 0004092 208.2249 151.8768 15.26951611140629
INSAT-3DS               
1 58990U 24033A   26199.90461339 -.00000162  00000+0  00000+0 0  9993
2 58990   0.0807 264.1306 0001209 221.7783 218.5102  1.00270805 47386
METEOR-M2 4             
1 59051U 24039A   26199.97798968 -.00000013  00000+0  13810-4 0  9999
2 59051  98.7028 158.8796 0008247  79.4037 280.8069 14.22432338123787
GOES 19                 
1 60133U 24119A   26199.62891936 -.00000255  00000+0  00000+0 0  9992
2 60133   0.0180 140.2723 0000390  52.0769 255.2869  1.00270741  7279
MTG-S1                  
1 64723U 25143A   26199.79072490 -.00000013  00000+0  00000+0 0  9995
2 64723   0.5824 345.9806 0003311 259.1431 335.7516  1.00274651  3730
METOP-SGA1              
1 65159U 25172A   26195.76442858  .00000019  00000+0  29163-4 0  9994
2 65159  98.6631 254.9090 0007098 333.3306  26.7504 14.19819127 47700
FENGYUN 3H              
1 65815U 25219A   26199.82126387  .00000004  00000+0  22350-4 0  9997
2 65815  98.6769 139.9762 0001076  61.0817 299.0468 14.19925118 41875
